start=new Date('2022-04-28T00:00:00.000Z').valueOf();
sats=[{"OBJECT_TYPE":"PAYLOAD","REF_FRAME":"TEME","MEAN_ELEMENT_THEORY":"SGP4","LAUNCH_DATE":"2021-01-20","ELEMENT_SET_NO":"999","MEAN_ANOMALY":"310.3198","MEAN_MOTION":"15.06391873","CLASSIFICATION_TYPE":"U","ARG_OF_PERICENTER":"49.7967","OBJECT_ID":"2021-005AY","TIME_SYSTEM":"UTC","EPOCH":"2022-04-27T17:00:30.746880","SITE":"AFETR","MEAN_MOTION_DDOT":"0.0000000000000","REV_AT_EPOCH":"7078","PERIOD":"95.593","DECAY_DATE":null,"CENTER_NAME":"EARTH","APOAPSIS":"548.633","NORAD_CAT_ID":"47395","OBJECT_NAME":"STARLINK-2117","TLE_LINE2":"2 47395  53.0530 240.2549 0002014  49.7967 310.3198 15.06391873 70781","COUNTRY_CODE":"US","RA_OF_ASC_NODE":"240.2549","INCLINATION":"53.0530","GP_ID":"202165007","BSTAR":"0.00001529400000","ECCENTRICITY":"0.00020140","RCS_SIZE":"LARGE","EPHEMERIS_TYPE":"0","TLE_LINE1":"1 47395U 21005AY  22117.70868920 -.00000054  00000-0  15294-4 0  9994","SEMIMAJOR_AXIS":"6925.373","MEAN_MOTION_DOT":"-0.00000054","FILE":"3418653","PERIAPSIS":"545.844"},{"SEMIMAJOR_AXIS":"6925.378","PERIAPSIS":"546.244","FILE":"3418497","MEAN_MOTION_DOT":"0.00002582","ECCENTRICITY":"0.00014420","RCS_SIZE":"LARGE","BSTAR":"0.00019219000000","GP_ID":"202158750","TLE_LINE1":"1 47396U 21005AZ  22117.55295873  .00002582  00000-0  19219-3 0  9996","EPHEMERIS_TYPE":"0","RA_OF_ASC_NODE":"250.9477","COUNTRY_CODE":"US","INCLINATION":"53.0533","TLE_LINE2":"2 47396  53.0533 250.9477 0001442  68.2110 291.9032 15.06390488 70628","NORAD_CAT_ID":"47396","OBJECT_NAME":"STARLINK-2118","MEAN_MOTION_DDOT":"0.0000000000000","REV_AT_EPOCH":"7062","SITE":"AFETR","APOAPSIS":"548.241","DECAY_DATE":null,"CENTER_NAME":"EARTH","PERIOD":"95.593","TIME_SYSTEM":"UTC","OBJECT_ID":"2021-005AZ","EPOCH":"2022-04-27T13:16:15.634272","MEAN_ELEMENT_THEORY":"SGP4","LAUNCH_DATE":"2021-01-20","ELEMENT_SET_NO":"999","MEAN_ANOMALY":"291.9032","REF_FRAME":"TEME","OBJECT_TYPE":"PAYLOAD","ARG_OF_PERICENTER":"68.2110","MEAN_MOTION":"15.06390488","CLASSIFICATION_TYPE":"U"},{"TLE_LINE2":"2 47397  53.0532 280.9542 0001904  46.9571 313.1578 15.06398686 70205","COUNTRY_CODE":"US","RA_OF_ASC_NODE":"280.9542","INCLINATION":"53.0532","GP_ID":"202157504","BSTAR":"0.00037693000000","ECCENTRICITY":"0.00019040","RCS_SIZE":"LARGE","TLE_LINE1":"1 47397U 21005BA  22117.55019566  .00005337  00000-0  37693-3 0  9997","EPHEMERIS_TYPE":"0","SEMIMAJOR_AXIS":"6925.353","MEAN_MOTION_DOT":"0.00005337","FILE":"3418497","PERIAPSIS":"545.899","OBJECT_TYPE":"PAYLOAD","REF_FRAME":"TEME","LAUNCH_DATE":"2021-01-20","MEAN_ELEMENT_THEORY":"SGP4","ELEMENT_SET_NO":"999","MEAN_ANOMALY":"313.1578","MEAN_MOTION":"15.06398686","CLASSIFICATION_TYPE":"U","ARG_OF_PERICENTER":"46.9571","OBJECT_ID":"2021-005BA","TIME_SYSTEM":"UTC","EPOCH":"2022-04-27T13:12:16.905024","SITE":"AFETR","MEAN_MOTION_DDOT":"0.0000000000000","REV_AT_EPOCH":"7020","PERIOD":"95.592","CENTER_NAME":"EARTH","DECAY_DATE":null,"APOAPSIS":"548.536","NORAD_CAT_ID":"47397","OBJECT_NAME":"STARLINK-2119"},{"EPOCH":"2022-04-27T12:33:47.961792","TIME_SYSTEM":"UTC","OBJECT_ID":"2021-005BB","ARG_OF_PERICENTER":"69.8624","MEAN_MOTION":"15.06388101","CLASSIFICATION_TYPE":"U","LAUNCH_DATE":"2021-01-20","ELEMENT_SET_NO":"999","MEAN_ANOMALY":"290.2526","MEAN_ELEMENT_THEORY":"SGP4","OBJECT_TYPE":"PAYLOAD","REF_FRAME":"TEME","OBJECT_NAME":"STARLINK-2120","NORAD_CAT_ID":"47398","DECAY_DATE":null,"CENTER_NAME":"EARTH","APOAPSIS":"548.281","PERIOD":"95.593","REV_AT_EPOCH":"7061","MEAN_MOTION_DDOT":"0.0000000000000","SITE":"AFETR","INCLINATION":"53.0553","RA_OF_ASC_NODE":"251.0787","COUNTRY_CODE":"US","TLE_LINE2":"2 47398  53.0553 251.0787 0001489  69.8624 290.2526 15.06388101 70614","PERIAPSIS":"546.219","MEAN_MOTION_DOT":"0.00001698","FILE":"3418497","SEMIMAJOR_AXIS":"6925.385","EPHEMERIS_TYPE":"0","TLE_LINE1":"1 47398U 21005BB  22117.52347178  .00001698  00000-0  13287-3 0  9997","BSTAR":"0.00013287000000","ECCENTRICITY":"0.00014890","RCS_SIZE":"LARGE","GP_ID":"202157253"},{"APOAPSIS":"548.371","DECAY_DATE":null,"CENTER_NAME":"EARTH","PERIOD":"95.593","MEAN_MOTION_DDOT":"0.0000000000000","REV_AT_EPOCH":"7045","SITE":"AFETR","OBJECT_NAME":"STARLINK-2121","NORAD_CAT_ID":"47399","ARG_OF_PERICENTER":"59.2447","CLASSIFICATION_TYPE":"U","MEAN_MOTION":"15.06389351","MEAN_ANOMALY":"300.8702","LAUNCH_DATE":"2021-01-20","ELEMENT_SET_NO":"999","MEAN_ELEMENT_THEORY":"SGP4","OBJECT_TYPE":"PAYLOAD","REF_FRAME":"TEME","EPOCH":"2022-04-27T09:41:15.544032","TIME_SYSTEM":"UTC","OBJECT_ID":"2021-005BC","TLE_LINE1":"1 47399U 21005BC  22117.40365213 -.00000863  00000-0 -39057-4 0  9994","EPHEMERIS_TYPE":"0","RCS_SIZE":"LARGE","ECCENTRICITY":"0.00016240","BSTAR":"-0.00003905700000","GP_ID":"202158505","PERIAPSIS":"546.122","FILE":"3418497","MEAN_MOTION_DOT":"-0.00000863","SEMIMAJOR_AXIS":"6925.381","TLE_LINE2":"2 47399  53.0546 261.6276 0001624  59.2447 300.8702 15.06389351 70458","INCLINATION":"53.0546","RA_OF_ASC_NODE":"261.6276","COUNTRY_CODE":"US"},{"EPOCH":"2022-04-27T09:17:22.443648","OBJECT_ID":"2021-005BD","TIME_SYSTEM":"UTC","CLASSIFICATION_TYPE":"U","MEAN_MOTION":"15.06393753","ARG_OF_PERICENTER":"72.0417","OBJECT_TYPE":"PAYLOAD","REF_FRAME":"TEME","MEAN_ELEMENT_THEORY":"SGP4","LAUNCH_DATE":"2021-01-20","ELEMENT_SET_NO":"999","MEAN_ANOMALY":"288.0805","OBJECT_NAME":"STARLINK-2122","NORAD_CAT_ID":"47400","PERIOD":"95.593","APOAPSIS":"548.711","CENTER_NAME":"EARTH","DECAY_DATE":null,"SITE":"AFETR","MEAN_MOTION_DDOT":"0.0000000000000","REV_AT_EPOCH":"7073","INCLINATION":"53.0559","COUNTRY_CODE":"US","RA_OF_ASC_NODE":"241.6828","TLE_LINE2":"2 47400  53.0559 241.6828 0002134  72.0417 288.0805 15.06393753 70736","FILE":"3418497","MEAN_MOTION_DOT":"0.00002670","PERIAPSIS":"545.755","SEMIMAJOR_AXIS":"6925.368","EPHEMERIS_TYPE":"0","TLE_LINE1":"1 47400U 21005BD  22117.38706532  .00002670  00000-0  19810-3 0  9997","GP_ID":"202158250","RCS_SIZE":"LARGE","ECCENTRICITY":"0.00021340","BSTAR":"0.00019810000000"},{"EPOCH":"2022-04-27T12:55:01.115904","TIME_SYSTEM":"UTC","OBJECT_ID":"2021-005BE","ARG_OF_PERICENTER":"45.9448","MEAN_MOTION":"15.06393104","CLASSIFICATION_TYPE":"U","LAUNCH_DATE":"2021-01-20","MEAN_ELEMENT_THEORY":"SGP4","ELEMENT_SET_NO":"999","MEAN_ANOMALY":"314.1679","REF_FRAME":"TEME","OBJECT_TYPE":"PAYLOAD","OBJECT_NAME":"STARLINK-2123","NORAD_CAT_ID":"47401","APOAPSIS":"548.397","CENTER_NAME":"EARTH","DECAY_DATE":null,"PERIOD":"95.593","MEAN_MOTION_DDOT":"0.0000000000000","REV_AT_EPOCH":"7062","SITE":"AFETR","INCLINATION":"53.0545","RA_OF_ASC_NODE":"251.0248","COUNTRY_CODE":"US","TLE_LINE2":"2 47401  53.0545 251.0248 0001679  45.9448 314.1679 15.06393104 70627","PERIAPSIS":"546.072","FILE":"3418497","MEAN_MOTION_DOT":"0.00001209","SEMIMAJOR_AXIS":"6925.370","TLE_LINE1":"1 47401U 21005BE  22117.53820736  .00001209  00000-0  10009-3 0  9996","EPHEMERIS_TYPE":"0","RCS_SIZE":"LARGE","ECCENTRICITY":"0.00016790","BSTAR":"0.00010009000000","GP_ID":"202157004"},{"PERIAPSIS":"545.962","MEAN_MOTION_DOT":"0.00004145","FILE":"3418659","SEMIMAJOR_AXIS":"6925.362","TLE_LINE1":"1 47402U 21005BF  22117.75568129  .00004145  00000-0  29702-3 0  9998","EPHEMERIS_TYPE":"0","BSTAR":"0.00029702000000","ECCENTRICITY":"0.00018270","RCS_SIZE":"LARGE","GP_ID":"202165060","INCLINATION":"53.0533","RA_OF_ASC_NODE":"250.0338","COUNTRY_CODE":"US","TLE_LINE2":"2 47402  53.0533 250.0338 0001827  55.4361 304.6800 15.06395630 71266","OBJECT_NAME":"STARLINK-2124","NORAD_CAT_ID":"47402","CENTER_NAME":"EARTH","DECAY_DATE":null,"APOAPSIS":"548.492","PERIOD":"95.592","MEAN_MOTION_DDOT":"0.0000000000000","REV_AT_EPOCH":"7126","SITE":"AFETR","EPOCH":"2022-04-27T18:08:10.863456","TIME_SYSTEM":"UTC","OBJECT_ID":"2021-005BF","ARG_OF_PERICENTER":"55.4361","MEAN_MOTION":"15.06395630","CLASSIFICATION_TYPE":"U","LAUNCH_DATE":"2021-01-20","MEAN_ANOMALY":"304.6800","ELEMENT_SET_NO":"999","MEAN_ELEMENT_THEORY":"SGP4","OBJECT_TYPE":"PAYLOAD","REF_FRAME":"TEME"},{"LAUNCH_DATE":"2021-01-20","MEAN_ANOMALY":"291.8848","ELEMENT_SET_NO":"999","MEAN_ELEMENT_THEORY":"SGP4","OBJECT_TYPE":"PAYLOAD","REF_FRAME":"TEME","ARG_OF_PERICENTER":"68.2311","MEAN_MOTION":"15.06397018","CLASSIFICATION_TYPE":"U","TIME_SYSTEM":"UTC","OBJECT_ID":"2021-005BG","EPOCH":"2022-04-27T11:56:38.024448","REV_AT_EPOCH":"7061","MEAN_MOTION_DDOT":"0.0000000000000","SITE":"AFETR","CENTER_NAME":"EARTH","DECAY_DATE":null,"APOAPSIS":"548.327","PERIOD":"95.592","NORAD_CAT_ID":"47403","OBJECT_NAME":"STARLINK-2127","TLE_LINE2":"2 47403  53.0534 251.2007 0001595  68.2311 291.8848 15.06397018 70612","RA_OF_ASC_NODE":"251.2007","COUNTRY_CODE":"US","INCLINATION":"53.0534","BSTAR":"0.00024085000000","RCS_SIZE":"LARGE","ECCENTRICITY":"0.00015950","GP_ID":"202158005","EPHEMERIS_TYPE":"0","TLE_LINE1":"1 47403U 21005BG  22117.49766232  .00003307  00000-0  24085-3 0  9993","SEMIMAJOR_AXIS":"6925.358","PERIAPSIS":"546.118","MEAN_MOTION_DOT":"0.00003307","FILE":"3418497"},{"TIME_SYSTEM":"UTC","OBJECT_ID":"2021-005BH","EPOCH":"2022-04-27T11:51:19.651680","LAUNCH_DATE":"2021-01-20","MEAN_ELEMENT_THEORY":"SGP4","ELEMENT_SET_NO":"999","MEAN_ANOMALY":"305.4955","REF_FRAME":"TEME","OBJECT_TYPE":"PAYLOAD","ARG_OF_PERICENTER":"54.6196","MEAN_MOTION":"15.06401707","CLASSIFICATION_TYPE":"U","NORAD_CAT_ID":"47404","OBJECT_NAME":"STARLINK-2128","MEAN_MOTION_DDOT":"0.0000000000000","REV_AT_EPOCH":"7061","SITE":"AFETR","APOAPSIS":"548.411","CENTER_NAME":"EARTH","DECAY_DATE":null,"PERIOD":"95.592","RA_OF_ASC_NODE":"251.2161","COUNTRY_CODE":"US","INCLINATION":"53.0541","TLE_LINE2":"2 47404  53.0541 251.2161 0001736  54.6196 305.4955 15.06401707 70611","SEMIMAJOR_AXIS":"6925.343","PERIAPSIS":"546.006","FILE":"3418497","MEAN_MOTION_DOT":"0.00004067","ECCENTRICITY":"0.00017360","RCS_SIZE":"LARGE","BSTAR":"0.00029174000000","GP_ID":"202158751","EPHEMERIS_TYPE":"0","TLE_LINE1":"1 47404U 21005BH  22117.49397745  .00004067  00000-0  29174-3 0  9991"}];
